{
    "links": {
        "self": "http://www.neowsapp.com/rest/v1/neo/3986729?api_key=iIulBulltgU6a56xZRHN4H3l9WmuAYTsLGpBGhQ2"
    },
    "id": "3986729",
    "neo_reference_id": "3986729",
    "name": "(2020 BM)",
    "designation": "2020 BM",
    "nasa_jpl_url": "http://ssd.jpl.nasa.gov/sbdb.cgi?sstr=3986729",
    "absolute_magnitude_h": 26.412,
    "estimated_diameter": {
        "kilometers": {
            "estimated_diameter_min": 0.0138725078,
            "estimated_diameter_max": 0.0310198704
        },
        "meters": {
            "estimated_diameter_min": 13.8725077659,
            "estimated_diameter_max": 31.019870383
        },
        "miles": {
            "estimated_diameter_min": 0.008619974,
            "estimated_diameter_max": 0.0192748479
        },
        "feet": {
            "estimated_diameter_min": 45.5134783787,
            "estimated_diameter_max": 101.7712315472
        }
    },
    "is_potentially_hazardous_asteroid": false,
    "close_approach_data": [
        {
            "close_approach_date": "2020-01-14",
            "close_approach_date_full": "2020-Jan-14 13:02",
            "epoch_date_close_approach": 1579006920000,
            "relative_velocity": {
                "kilometers_per_second": "7.985568118",
                "kilometers_per_hour": "28748.0452247607",
                "miles_per_hour": "17862.9173231298"
            },
            "miss_distance": {
                "astronomical": "0.0312664848",
                "lunar": "12.1626625872",
                "kilometers": "4677399.528467376",
                "miles": "2906401.2953707488"
            },
            "orbiting_body": "Earth"
        }
    ],
    "orbital_data": {
        "orbit_id": "2",
        "orbit_determination_date": "2020-02-08 04:58:05",
        "first_observation_date": "2020-01-18",
        "last_observation_date": "2020-01-24",
        "data_arc_in_days": 6,
        "observations_used": 21,
        "orbit_uncertainty": "8",
        "minimum_orbit_intersection": ".0305939",
        "jupiter_tisserand_invariant": "3.905",
        "epoch_osculation": "2458869.5",
        "eccentricity": ".4474667862638346",
        "semi_major_axis": "1.818319348304956",
        "inclination": "9.453285773308989",
        "ascending_node_longitude": "110.5760391453163",
        "orbital_period": "895.5785161660642",
        "perihelion_distance": "1.004681833117587",
        "perihelion_argument": "16.37063078280767",
        "aphelion_distance": "2.631956863492324",
        "perihelion_time": "2458874.177327613459",
        "mean_anomaly": "358.1198321415148",
        "mean_motion": ".4019748056721432",
        "equinox": "J2000",
        "orbit_class": {
            "orbit_class_type": "APO",
            "orbit_class_description": "Near-Earth asteroid orbits which cross the Earth’s orbit similar to that of 1862 Apollo",
            "orbit_class_range": "a (semi-major axis) > 1.0 AU; q (perihelion) < 1.017 AU"
        }
    },
    "is_sentry_object": false
}